NORAD_CAT_ID,OBJECT_NAME,OBJECT_TYPE,EPOCH,MEAN_MOTION,ECCENTRICITY,INCLINATION,RA_OF_ASC_NODE,ARG_OF_PERICENTER,MEAN_ANOMALY,BSTAR,MEAN_MOTION_DOT,MEAN_MOTION_DDOT,TLE_LINE0,TLE_LINE1,TLE_LINE2,SEMIMAJOR_AXIS,PERIOD,APOGEE,PERIGEE,DECAYED
53556.0,STARLINK-4505,PAYLOAD,2022-11-06 12:04:32,15.08821233,0.0001446,53.2215,137.2491,66.8535,293.261,-0.00014303,-2.562e-05,0.0,0 STARLINK-4505,1 53556U 22101AF  22310.50315883 -.00002562  00000-0 -14303-3 0  9992,2 53556  53.2215 137.2491 0001446  66.8535 293.2610 15.08821233 12255,6917.938,95.439,540.803,538.802,0.0
53556.0,STARLINK-4505,PAYLOAD,2022-11-06 18:26:05,15.08817271,0.0001481,53.2215,136.06,67.7459,292.3691,-4.5709e-05,-1.015e-05,0.0,0 STARLINK-4505,1 53556U 22101AF  22310.76812147 -.00001015  00000-0 -45709-4 0  9992,2 53556  53.2215 136.0600 0001481  67.7459 292.3691 15.08817271 12298,6917.95,95.439,540.839,538.79,0.0
53556.0,STARLINK-4505,PAYLOAD,2022-11-07 03:58:23,15.08837463,0.0001501,53.2216,134.2756,69.3468,290.7685,6.7747e-05,7.9e-06,0.0,0 STARLINK-4505,1 53556U 22101AF  22311.16554761  .00000790  00000-0  67747-4 0  9995,2 53556  53.2216 134.2756 0001501  69.3468 290.7685 15.08837463 12359,6917.888000000001,95.438,540.7919999999998,538.715,0.0
53556.0,STARLINK-4505,PAYLOAD,2022-11-07 19:52:14,15.08840585,0.000152,53.2216,131.3023,74.2588,285.8572,0.00018549,2.665e-05,0.0,0 STARLINK-4505,1 53556U 22101AF  22311.82794348  .00002665  00000-0  18549-3 0  9993,2 53556  53.2216 131.3023 0001520  74.2588 285.8572 15.08840585 12453,6917.879,95.438,540.795,538.692,0.0
53556.0,STARLINK-4505,PAYLOAD,2022-11-08 02:13:46,15.0884112,0.0001588,53.2218,130.1132,67.7172,292.3989,0.00027327,4.064e-05,0.0,0 STARLINK-4505,1 53556U 22101AF  22312.09290082  .00004064  00000-0  27327-3 0  9998,2 53556  53.2218 130.1132 0001588  67.7172 292.3989 15.08841120 12498,6917.877,95.437,540.841,538.643,0.0
53556.0,STARLINK-4505,PAYLOAD,2022-11-08 08:35:19,15.08844291,0.0001582,53.2217,128.9239,68.7832,291.3329,0.00024836,3.667e-05,0.0,0 STARLINK-4505,1 53556U 22101AF  22312.35785896  .00003667  00000-0  24836-3 0  9999,2 53556  53.2217 128.9239 0001582  68.7832 291.3329 15.08844291 12532,6917.8669999999975,95.437,540.827,538.638,0.0
53556.0,STARLINK-4505,PAYLOAD,2022-11-08 21:18:24,15.0884263,0.0001579,53.2217,126.5453,69.2203,290.8959,0.00016684,2.368e-05,0.0,0 STARLINK-4505,1 53556U 22101AF  22312.88778183  .00002368  00000-0  16684-3 0  9997,2 53556  53.2217 126.5453 0001579  69.2203 290.8959 15.08842630 12615,6917.871999999999,95.437,540.83,538.645,0.0
53556.0,STARLINK-4505,PAYLOAD,2022-11-09 02:04:34,15.08833792,0.0001536,53.2217,125.6533,65.9887,294.1266,4.363899999999999e-05,4.06e-06,0.0,0 STARLINK-4505,1 53556U 22101AF  22313.08651142  .00000406  00000-0  43639-4 0  9997,2 53556  53.2217 125.6533 0001536  65.9887 294.1266 15.08833792 12648,6917.899,95.438,540.827,538.702,0.0
53556.0,STARLINK-4505,PAYLOAD,2022-11-09 10:01:29,15.0884272,0.0001530999999999,53.2217,124.1665,67.9173,292.1982,-3.2941e-05,-8.12e-06,0.0,0 STARLINK-4505,1 53556U 22101AF  22313.41770716 -.00000812  00000-0 -32941-4 0  9990,2 53556  53.2217 124.1665 0001531  67.9173 292.1982 15.08842720 12692,6917.871999999999,95.437,540.7959999999998,538.678,0.0
53556.0,STARLINK-4505,PAYLOAD,2022-11-09 14:47:39,15.08845875,0.0001564999999999,53.2218,123.2749,65.6763,294.4392,-2.953e-05,-7.58e-06,0.0,0 STARLINK-4505,1 53556U 22101AF  22313.61642434 -.00000758  00000-0 -29530-4 0  9996,2 53556  53.2218 123.2749 0001565  65.6763 294.4392 15.08845875 12721,6917.861999999999,95.437,540.81,538.645,0.0
53556.0,STARLINK-4505,PAYLOAD,2022-11-09 21:09:11,15.08848242,0.0001519,53.2218,122.0852,67.7789,292.3365,-2.0969e-05,-6.22e-06,0.0,0 STARLINK-4505,1 53556U 22101AF  22313.88138075 -.00000622  00000-0 -20969-4 0  9993,2 53556  53.2218 122.0852 0001519  67.7789 292.3365 15.08848242 12765,6917.855,95.437,540.771,538.669,0.0
53556.0,STARLINK-4505,PAYLOAD,2022-11-09 22:44:34,15.08849865,0.0001517,53.2218,121.7879,67.5641,292.5511,-2.4915e-05,-6.85e-06,0.0,0 STARLINK-4505,1 53556U 22101AF  22313.94761939 -.00000685  00000-0 -24915-4 0  9995,2 53556  53.2218 121.7879 0001517  67.5641 292.5511 15.08849865 12771,6917.85,95.437,540.765,538.6659999999998,0.0
53556.0,STARLINK-4505,PAYLOAD,2022-11-10 11:27:39,15.088456699999998,0.0001506,53.2218,119.4092,67.9932,292.122,-0.00010825,-2.011e-05,0.0,0 STARLINK-4505,1 53556U 22101AF  22314.47754160 -.00002011  00000-0 -10825-3 0  9991,2 53556  53.2218 119.4092 0001506  67.9932 292.1220 15.08845670 12859,6917.863,95.437,540.77,538.686,0.0
53556.0,STARLINK-4505,PAYLOAD,2022-11-10 17:49:12,15.08837828,0.0001506,53.2219,118.2199,66.8884,293.2267,-6.4955e-05,-1.322e-05,0.0,0 STARLINK-4505,1 53556U 22101AF  22314.74250495 -.00001322  00000-0 -64955-4 0  9991,2 53556  53.2219 118.2199 0001506  66.8884 293.2267 15.08837828 12892,6917.887,95.438,540.794,538.71,0.0
53556.0,STARLINK-4505,PAYLOAD,2022-11-11 11:18:26,15.08840458,0.0001466,53.2219,114.9492,65.1588,294.9556,5.2583e-05,5.49e-06,0.0,0 STARLINK-4505,1 53556U 22101AF  22315.47113875  .00000549  00000-0  52583-4 0  9994,2 53556  53.2219 114.9492 0001466  65.1588 294.9556 15.08840458 13005,6917.879,95.438,540.758,538.73,0.0
53556.0,STARLINK-4505,PAYLOAD,2022-11-11 17:39:58,15.088409900000002,0.0001445,53.2219,113.7598,64.4423,295.6718,2.0959e-05,4.6e-07,0.0,0 STARLINK-4505,1 53556U 22101AF  22315.73609904  .00000046  00000-0  20959-4 0  9990,2 53556  53.2219 113.7598 0001445  64.4423 295.6718 15.08840990 13049,6917.877,95.437,540.742,538.743,0.0
53556.0,STARLINK-4505,PAYLOAD,2022-11-12 03:12:18,15.08836369,0.0001428,53.2221,111.9759,61.7082,298.4054,-5.0954e-05,-1.099e-05,0.0,0 STARLINK-4505,1 53556U 22101AF  22316.13354467 -.00001099  00000-0 -50954-4 0  9995,2 53556  53.2221 111.9759 0001428  61.7082 298.4054 15.08836369 13109,6917.891,95.438,540.744,538.769,0.0
53556.0,STARLINK-4505,PAYLOAD,2022-11-12 11:09:13,15.08838773,0.0001416999999999,53.2217,110.4885,65.1811,294.9329,1.0584e-05,-1.19e-06,0.0,0 STARLINK-4505,1 53556U 22101AF  22316.46474142 -.00000119  00000-0  10584-4 0  9990,2 53556  53.2217 110.4885 0001417  65.1811 294.9329 15.08838773 13156,6917.884,95.438,540.729,538.769,0.0
53556.0,STARLINK-4505,PAYLOAD,2022-11-12 17:30:45,15.08840485,0.0001476,53.2218,109.2994,63.6471,296.4673,8.4992e-05,1.065e-05,0.0,0 STARLINK-4505,1 53556U 22101AF  22316.72969804  .00001065  00000-0  84992-4 0  9997,2 53556  53.2218 109.2994 0001476  63.6471 296.4673 15.08840485 13190,6917.879,95.438,540.765,538.7230000000002,0.0
53556.0,STARLINK-4505,PAYLOAD,2022-11-13 09:24:37,15.08837939,0.0001495,53.2217,106.3261,60.8204,299.2938,-4.6452e-05,-1.027e-05,0.0,0 STARLINK-4505,1 53556U 22101AF  22317.39210325 -.00001027  00000-0 -46452-4 0  9997,2 53556  53.2217 106.3261 0001495  60.8204 299.2938 15.08837939 13294,6917.887,95.438,540.786,538.717,0.0
53556.0,STARLINK-4505,PAYLOAD,2022-11-13 11:00:00,15.08837668,0.0001489,53.2219,106.029,59.3459,300.768,-4.9455e-05,-1.075e-05,0.0,0 STARLINK-4505,1 53556U 22101AF  22317.45834358 -.00001075  00000-0 -49455-4 0  9991,2 53556  53.2219 106.0290 0001489  59.3459 300.7680 15.08837668 13306,6917.888000000001,95.438,540.783,538.722,0.0
53556.0,STARLINK-4505,PAYLOAD,2022-11-13 17:21:33,15.08840277,0.0001491,53.2219,104.8395,60.8869,299.2272,-2.323300000000001e-05,-6.58e-06,0.0,0 STARLINK-4505,1 53556U 22101AF  22317.72330101 -.00000658  00000-0 -23233-4 0  9990,2 53556  53.2219 104.8395 0001491  60.8869 299.2272 15.08840277 13346,6917.88,95.438,540.776,538.7130000000002,0.0
53556.0,STARLINK-4505,PAYLOAD,2022-11-14 04:29:16,15.08827936,0.0001465,53.2218,102.7581,61.2084,298.9055,-5.1978e-05,-1.115e-05,0.0,0 STARLINK-4505,1 53556U 22101AF  22318.18699146 -.00001115  00000-0 -51978-4 0  9994,2 53556  53.2218 102.7581 0001465  61.2084 298.9055 15.08827936 13414,6917.917,95.438,540.7959999999998,538.769,0.0
53556.0,STARLINK-4505,PAYLOAD,2022-11-14 17:12:20,15.088351500000002,0.0001626999999999,53.2224,100.3813,55.2176,304.897,-2.5092e-05,-6.87e-06,0.0,0 STARLINK-4505,1 53556U 22101AF  22318.71690938 -.00000687  00000-0 -25092-4 0  9994,2 53556  53.2224 100.3813 0001627  55.2176 304.8970 15.08835150 13496,6917.895,95.438,540.886,538.635,0.0
53556.0,STARLINK-4505,PAYLOAD,2022-11-15 02:44:39,15.08842063,0.0001551,53.2224,98.5969,57.4504,302.6638,7.9858e-07,-2.75e-06,0.0,0 STARLINK-4505,1 53556U 22101AF  22319.11434397 -.00000275  00000-0  79858-6 0  9997,2 53556  53.2224  98.5969 0001551  57.4504 302.6638 15.08842063 13556,6917.874,95.437,540.812,538.6659999999998,0.0
53556.0,STARLINK-4505,PAYLOAD,2022-11-15 13:52:21,15.08834871,0.0001413,53.2224,96.5143,58.4001,301.7128,2.5003e-05,1.1e-06,0.0,0 STARLINK-4505,1 53556U 22101AF  22319.57802702  .00000110  00000-0  25003-4 0  9994,2 53556  53.2224  96.5143 0001413  58.4001 301.7128 15.08834871 13628,6917.896,95.438,540.739,538.784,0.0
53556.0,STARLINK-4505,PAYLOAD,2022-11-15 17:03:08,15.08832963,0.0001425,53.2224,95.9195,58.637,301.4761,9.2261e-06,-1.41e-06,0.0,0 STARLINK-4505,1 53556U 22101AF  22319.71050926 -.00000141  00000-0  92261-5 0  9999,2 53556  53.2224  95.9195 0001425  58.6370 301.4761 15.08832963 13644,6917.901999999999,95.438,540.753,538.781,0.0
53556.0,STARLINK-4505,PAYLOAD,2022-11-16 12:07:45,15.088385999999998,0.0001356,53.2228,92.3516,56.7944,303.3178,6.943699999999999e-05,8.17e-06,0.0,0 STARLINK-4505,1 53556U 22101AF  22320.50538518  .00000817  00000-0  69437-4 0  9993,2 53556  53.2228  92.3516 0001356  56.7944 303.3178 15.08838600 13765,6917.885,95.438,540.688,538.812,0.0
53556.0,STARLINK-4505,PAYLOAD,2022-11-16 15:18:31,15.08835819,0.0001476,53.2228,91.758,54.7765,305.3365,4.6307e-05,4.49e-06,0.0,0 STARLINK-4505,1 53556U 22101AF  22320.63786835  .00000449  00000-0  46307-4 0  9996,2 53556  53.2228  91.7580 0001476  54.7765 305.3365 15.08835819 13782,6917.893,95.438,540.779,538.737,0.0
